OBJECT_NAME,OBJECT_ID,EPOCH,MEAN_MOTION,ECCENTRICITY,INCLINATION,RA_OF_ASC_NODE,ARG_OF_PERICENTER,MEAN_ANOMALY,EPHEMERIS_TYPE,CLASSIFICATION_TYPE,NORAD_CAT_ID,ELEMENT_SET_NO,REV_AT_EPOCH,BSTAR,MEAN_MOTION_DOT,MEAN_MOTION_DDOT
OSCAR 7 (AO-7),1974-089B,2026-06-26T07:24:28.408032,12.53698198,.0012643,101.9899,190.6503,113.2400,258.3057,0,U,7530,999,36166,.9845E-4,-.31E-6,0
PHASE 3B (AO-10),1983-058B,2026-06-23T16:21:57.137184,2.05872578,.60085647,25.9176,218.4895,117.4551,314.9460,0,U,14129,999,29562,0,-.85E-6,0
UOSAT 2 (UO-11),1984-021B,2026-06-26T14:50:08.019168,14.90805248,.0008459,97.8061,143.0876,143.3075,216.8724,0,U,14781,999,25853,.121E-3,.1135E-4,0
LUSAT (LO-19),1990-005G,2026-06-26T07:43:11.398944,14.34125703,.0011652,98.8847,199.3789,173.9704,186.1622,0,U,20442,999,90370,.57434E-4,.114E-5,0
EYESAT A (AO-27),1993-061C,2026-06-26T17:15:46.039104,14.30944565,.0009493,98.6877,245.1292,75.2353,284.9880,0,U,22825,999,70836,.47386E-4,.8E-6,0
ITAMSAT (IO-26),1993-061D,2026-06-26T16:42:01.539360,14.31371714,.0009877,98.6824,245.0243,60.2758,299.9406,0,U,22826,999,70867,.45824E-4,.77E-6,0
RADIO ROSTO (RS15),1994-085A,2026-06-26T16:39:56.408832,11.27583424,.0156265,64.8178,287.8408,2.1190,358.0364,0,U,23439,999,29697,.45074E-4,-.41E-6,0
JAS-2 (FO-29),1996-046B,2026-06-26T11:29:38.476320,13.53274769,.03509,98.5232,25.0778,72.3924,291.5216,0,U,24278,999,47442,.18217E-4,-.15E-6,0
TECHSAT 1B (GO-32),1998-043D,2026-06-26T11:26:48.200064,14.24430067,.0001524,99.0071,170.4701,145.3708,214.7569,0,U,25397,999,45265,.45347E-4,.58E-6,0
ISS (ZARYA),1998-067A,2026-06-26T11:27:38.362176,15.49438531,.0004309,51.6324,254.1054,234.2414,125.8174,0,U,25544,999,57319,.15019E-3,.796E-4,0
PCSAT (NO-44),2001-043C,2026-06-26T12:26:45.940992,14.31958870,.00060395,67.0492,220.1368,265.1610,94.8803,0,U,26931,999,29178,.61957945E-4,.83E-6,0
SAUDISAT 1C (SO-50),2002-058C,2026-06-26T06:12:23.852160,14.83064844,.00750481,64.5520,100.9188,260.7782,98.4830,0,U,27607,999,26580,.12776643E-3,.937E-5,0
CUTE-1 (CO-55),2003-031E,2026-06-25T23:00:28.348416,14.24340671,.00100671,98.6736,185.4073,153.3060,206.8639,0,U,27844,999,19292,.13912556E-3,.278E-5,0
CUBESAT XI-IV (CO-57),2003-031J,2026-06-25T22:50:11.464512,14.23625133,.00095908,98.6767,185.1059,171.2746,188.8601,0,U,27848,999,19262,.12262206E-3,.236E-5,0
MOZHAETS 4 (RS22),2003-042A,2026-06-26T15:41:07.258272,14.73483376,.00100474,98.3473,2.2801,235.5664,197.8593,0,U,27939,999,21694,.1786343E-3,.1107E-4,0
CUBESAT XI-V,2005-043F,2026-06-26T17:04:07.248864,14.72655432,.0014302,98.2993,333.5333,170.4305,189.7177,0,U,28895,999,10315,.22252E-3,.1367E-4,0
CUTE-1.7+APD II (CO-65),2008-021C,2026-06-26T15:52:59.611584,15.09537507,.0008803,97.8273,159.2777,9.9021,350.2379,0,U,32785,999,98662,.29417E-3,.4656E-4,0
SEEDS II (CO-66),2008-021J,2026-06-26T11:17:16.956096,15.33053587,.0000491,97.7516,175.8130,216.1627,143.9581,0,U,32791,999,98871,.59022E-3,.18788E-3,0
YUBILEINY (RS30),2008-025A,2026-06-26T18:08:23.636832,12.43179936,.0018575,82.5046,349.4872,291.9023,68.0082,0,U,32953,999,82088,.25141E-3,.45E-6,0
KKS-1 (KISEKI),2009-002H,2026-06-26T18:27:44.483904,14.83146255,.0006389,98.1187,100.3635,257.8802,102.1695,0,U,33499,999,93761,.15879E-3,.1239E-4,0
SWISSCUBE,2009-051B,2026-06-26T11:21:40.366368,14.62497638,.000664,98.4029,85.5233,172.3713,187.7590,0,U,35932,999,89051,.18915E-3,.909E-5,0
BEESAT-1,2009-051C,2026-06-26T16:37:56.368992,14.61734342,.0004848,98.3957,85.3622,183.3217,176.7952,0,U,35933,999,89057,.16076E-3,.752E-5,0
ITUPSAT1,2009-051E,2026-06-26T16:36:48.654720,14.60453570,.0006751,98.4042,84.5432,199.9772,160.1164,0,U,35935,999,89012,.15443E-3,.7E-5,0
XIWANG-1 (HOPE-1),2009-072B,2026-06-26T17:51:01.780704,13.16440508,.0007068,100.4023,131.4231,207.8505,152.2230,0,U,36122,999,79426,.31166E-3,.75E-6,0
O/OREOS (USA 219),2010-062C,2026-06-26T16:56:15.032256,14.93781613,.0012916,71.9714,58.7781,42.8270,317.3904,0,U,37224,999,11806,.2115E-3,.2184E-4,0
JUGNU,2011-058B,2026-06-26T12:51:40.946976,14.13778961,.00184689,19.9598,251.6330,179.0814,209.6126,0,U,37839,999,76035,.69666367E-4,.401E-5,0
SRMSAT,2011-058D,2026-06-26T13:05:37.311072,14.11577357,.00117149,19.9735,2.8256,307.2404,82.9527,0,U,37841,999,75914,.56800397E-4,.37E-5,0
STRAND-1,2013-009E,2026-06-26T17:36:07.698816,14.37168557,.0008261,98.3924,357.7329,194.5261,165.5690,0,U,39090,999,69843,.10506E-3,.27E-5,0
ZACUBE-1 (TSHEPISOSAT),2013-066B,2026-06-26T11:20:07.652256,15.01236338,.0042084,97.8048,139.8569,216.0503,143.7882,0,U,39417,999,68212,.26519537E-3,.3406E-4,0
GOMX-1,2013-066Q,2026-06-26T09:04:57.415584,14.69489682,.0129856,97.6486,17.2611,48.3749,312.8495,0,U,39430,999,67126,.29012575E-3,.1907E-4,0
